NORAD_CAT_ID,OBJECT_NAME,OBJECT_TYPE,EPOCH,MEAN_MOTION,ECCENTRICITY,INCLINATION,RA_OF_ASC_NODE,ARG_OF_PERICENTER,MEAN_ANOMALY,BSTAR,MEAN_MOTION_DOT,MEAN_MOTION_DDOT,TLE_LINE0,TLE_LINE1,TLE_LINE2,SEMIMAJOR_AXIS,PERIOD,APOGEE,PERIGEE,DECAYED
53396.0,STARLINK-4524,PAYLOAD,2024-07-09 14:27:59,15.08847304,0.0001436,53.2182,333.9321,85.6022,274.5134,0.00016983,2.416e-05,0.0,0 STARLINK-4524,1 53396U 22097J   24191.60276708  .00002416  00000-0  16983-3 0  9992,2 53396  53.2182 333.9321 0001436  85.6022 274.5134 15.08847304106711,6917.858,95.437,540.716,538.73,0.0
53396.0,STARLINK-4524,PAYLOAD,2024-07-09 16:03:22,15.08848315,0.0001337,53.2181,333.6347,86.9168,273.1977,0.00019332,2.791e-05,0.0,0 STARLINK-4524,1 53396U 22097J   24191.66900614  .00002791  00000-0  19332-3 0  9995,2 53396  53.2181 333.6347 0001337  86.9168 273.1977 15.08848315106724,6917.855,95.437,540.645,538.795,0.0
53396.0,STARLINK-4524,PAYLOAD,2024-07-10 09:32:37,15.08839514,0.0001277,53.2177,330.3636,77.2596,282.8539,6.6973e-05,7.78e-06,0.0,0 STARLINK-4524,1 53396U 22097J   24192.39765120  .00000778  00000-0  66973-4 0  9994,2 53396  53.2177 330.3636 0001277  77.2596 282.8539 15.08839514106345,6917.882,95.438,540.63,538.863,0.0
53396.0,STARLINK-4524,PAYLOAD,2024-07-10 19:04:55,15.08843467,0.0001415,53.2201,328.5791,87.7489,272.3665,4.993e-05,5.07e-06,0.0,0 STARLINK-4524,1 53396U 22097J   24192.79508896  .00000507  00000-0  49930-4 0  9997,2 53396  53.2201 328.5791 0001415  87.7489 272.3665 15.08843467106891,6917.87,95.437,540.714,538.756,0.0
53396.0,STARLINK-4524,PAYLOAD,2024-07-11 14:09:33,15.08845409,0.0001307,53.2167,325.0102,89.7062,270.408,0.00016277,2.304e-05,0.0,0 STARLINK-4524,1 53396U 22097J   24193.58996853  .00002304  00000-0  16277-3 0  9993,2 53396  53.2167 325.0102 0001307  89.7062 270.4080 15.08845409107012,6917.864,95.437,540.633,538.825,0.0
53396.0,STARLINK-4524,PAYLOAD,2024-07-12 12:24:57,15.088343,0.0001515,53.2194,320.849,91.069,269.0476,1.3711e-05,-7e-07,0.0,0 STARLINK-4524,1 53396U 22097J   24194.51733566 -.00000070  00000-0  13711-4 0  9997,2 53396  53.2194 320.8490 0001515  91.0690 269.0476 15.08834300106660,6917.898,95.438,540.811,538.715,0.0
53396.0,STARLINK-4524,PAYLOAD,2024-07-12 14:00:21,15.08832793,0.0001602,53.2185,320.5507,83.5344,276.583,2.9729e-06,-2.41e-06,0.0,0 STARLINK-4524,1 53396U 22097J   24194.58357727 -.00000241  00000-0  29729-5 0  9992,2 53396  53.2185 320.5507 0001602  83.5344 276.5830 15.08832793107162,6917.902,95.438,540.876,538.659,0.0
53396.0,STARLINK-4524,PAYLOAD,2024-07-12 15:35:44,15.0883706,0.0001755,53.2189,320.2576,100.6572,259.4618,6.9851e-05,8.24e-06,0.0,0 STARLINK-4524,1 53396U 22097J   24194.64981493  .00000824  00000-0  69851-4 0  9997,2 53396  53.2189 320.2576 0001755 100.6572 259.4618 15.08837060107179,6917.889,95.438,540.968,538.54,0.0
53396.0,STARLINK-4524,PAYLOAD,2024-07-13 12:15:44,15.08846688,0.0001433,53.2183,316.3914,100.076,260.0394,0.00013901,1.925e-05,0.0,0 STARLINK-4524,1 53396U 22097J   24195.51093209  .00001925  00000-0  13901-3 0  9990,2 53396  53.2183 316.3914 0001433 100.0760 260.0394 15.08846688106816,6917.86,95.437,540.716,538.734,0.0
53396.0,STARLINK-4524,PAYLOAD,2024-07-13 13:51:07,15.08846615,0.0001462,53.2181,316.0943,100.0092,260.1066,0.00020333,2.95e-05,0.0,0 STARLINK-4524,1 53396U 22097J   24195.57717231  .00002950  00000-0  20333-3 0  9990,2 53396  53.2181 316.0943 0001462 100.0092 260.1066 15.08846615107316,6917.86,95.437,540.737,538.714,0.0
53396.0,STARLINK-4524,PAYLOAD,2024-07-13 17:01:53,15.08854257,0.0001425,53.218,315.4986,99.8421,260.2732,0.00037142,5.63e-05,0.0,0 STARLINK-4524,1 53396U 22097J   24195.70964971  .00005630  00000-0  37142-3 0  9994,2 53396  53.2180 315.4986 0001425  99.8421 260.2732 15.08854257107339,6917.837,95.437,540.688,538.716,0.0
53396.0,STARLINK-4524,PAYLOAD,2024-07-14 13:41:54,15.08840352,0.0001655,53.2177,311.6323,83.4108,276.7073,8.6709e-05,1.092e-05,0.0,0 STARLINK-4524,1 53396U 22097J   24196.57077497  .00001092  00000-0  86709-4 0  9990,2 53396  53.2177 311.6323 0001655  83.4108 276.7073 15.08840352106974,6917.879,95.438,540.889,538.599,0.0
53396.0,STARLINK-4524,PAYLOAD,2024-07-14 16:52:40,15.08853759,0.0001347,53.2175,311.0379,78.7814,281.3329,0.00035585,5.382e-05,0.0,0 STARLINK-4524,1 53396U 22097J   24196.70324962  .00005382  00000-0  35585-3 0  9998,2 53396  53.2175 311.0379 0001347  78.7814 281.3329 15.08853759106999,6917.838,95.437,540.635,538.772,0.0
53396.0,STARLINK-4524,PAYLOAD,2024-07-15 00:49:36,15.08845907,0.0001165,53.2167,309.5489,85.4135,274.699,0.00016865,2.398e-05,0.0,0 STARLINK-4524,1 53396U 22097J   24197.03445087  .00002398  00000-0  16865-3 0  9991,2 53396  53.2167 309.5489 0001165  85.4135 274.6990 15.08845907107045,6917.862,95.437,540.533,538.921,0.0
53396.0,STARLINK-4524,PAYLOAD,2024-07-15 13:32:41,15.08840574,0.000125,53.2147,307.171,84.5864,275.5271,6.3537e-05,7.23e-06,0.0,0 STARLINK-4524,1 53396U 22097J   24197.56437341  .00000723  00000-0  63537-4 0  9992,2 53396  53.2147 307.1710 0001250  84.5864 275.5271 15.08840574107618,6917.879,95.438,540.608,538.879,0.0
53396.0,STARLINK-4524,PAYLOAD,2024-07-15 15:08:04,15.08847187,0.0001247,53.2157,306.8737,83.2888,276.8246,0.00013392,1.845e-05,0.0,0 STARLINK-4524,1 53396U 22097J   24197.63061073  .00001845  00000-0  13392-3 0  9994,2 53396  53.2157 306.8737 0001247  83.2888 276.8246 15.08847187107626,6917.858,95.437,540.586,538.861,0.0
53396.0,STARLINK-4524,PAYLOAD,2024-07-16 00:40:23,15.08843886,0.0001268,53.2163,305.0888,88.9881,271.1257,0.00012246,1.662e-05,0.0,0 STARLINK-4524,1 53396U 22097J   24198.02805195  .00001662  00000-0  12246-3 0  9993,2 53396  53.2163 305.0888 0001268  88.9881 271.1257 15.08843886107193,6917.869,95.437,540.611,538.856,0.0
53396.0,STARLINK-4524,PAYLOAD,2024-07-16 13:23:28,15.08845119,0.000135,53.2165,302.7095,89.6867,270.428,0.00012407,1.687e-05,0.0,0 STARLINK-4524,1 53396U 22097J   24198.55797178  .00001687  00000-0  12407-3 0  9998,2 53396  53.2165 302.7095 0001350  89.6867 270.4280 15.08845119107765,6917.865,95.437,540.664,538.796,0.0
53396.0,STARLINK-4524,PAYLOAD,2024-07-17 13:14:16,15.08844145,0.0001197,53.2162,298.2514,74.0545,286.0579,0.00021895,3.199e-05,0.0,0 STARLINK-4524,1 53396U 22097J   24199.55157576  .00003199  00000-0  21895-3 0  9992,2 53396  53.2162 298.2514 0001197  74.0545 286.0579 15.08844145107422,6917.868,95.437,540.561,538.905,0.0
53396.0,STARLINK-4524,PAYLOAD,2024-07-18 13:05:03,15.08835428,0.0001413,53.2174,293.7882,90.3175,269.7979,0.00024383,3.594e-05,0.0,0 STARLINK-4524,1 53396U 22097J   24200.54518225  .00003594  00000-0  24383-3 0  9990,2 53396  53.2174 293.7882 0001413  90.3175 269.7979 15.08835428107576,6917.894,95.438,540.737,538.782,0.0
53396.0,STARLINK-4524,PAYLOAD,2024-07-19 12:55:50,15.08847634,0.0001354,53.2166,289.3307,83.1163,276.9983,0.00017764,2.541e-05,0.0,0 STARLINK-4524,1 53396U 22097J   24201.53877766  .00002541  00000-0  17764-3 0  9994,2 53396  53.2166 289.3307 0001354  83.1163 276.9983 15.08847634108210,6917.857,95.437,540.659,538.785,0.0
53396.0,STARLINK-4524,PAYLOAD,2024-07-19 22:28:09,15.08841817,0.0001285,53.2159,287.545,79.2141,280.8995,7.3948e-05,8.89e-06,0.0,0 STARLINK-4524,1 53396U 22097J   24201.93621983  .00000889  00000-0  73948-4 0  9996,2 53396  53.2159 287.5450 0001285  79.2141 280.8995 15.08841817108276,6917.875,95.437,540.629,538.851,0.0
53396.0,STARLINK-4524,PAYLOAD,2024-07-20 04:49:42,15.08839576,0.0001419,53.2172,286.3578,94.7173,265.3981,0.00011258,1.504e-05,0.0,0 STARLINK-4524,1 53396U 22097J   24202.20118263  .00001504  00000-0  11258-3 0  9999,2 53396  53.2172 286.3578 0001419  94.7173 265.3981 15.08839576107827,6917.882,95.438,540.728,538.765,0.0
53396.0,STARLINK-4524,PAYLOAD,2024-07-20 12:46:37,15.08843967,0.0001396,53.2176,284.8712,97.5785,262.5366,0.00015979,2.256e-05,0.0,0 STARLINK-4524,1 53396U 22097J   24202.53237979  .00002256  00000-0  15979-3 0  9990,2 53396  53.2176 284.8712 0001396  97.5785 262.5366 15.08843967108363,6917.868,95.437,540.699,538.768,0.0
53396.0,STARLINK-4524,PAYLOAD,2024-07-20 22:18:56,15.08847743,0.0001392,53.2175,283.0868,97.9841,262.1309,0.00014327,1.993e-05,0.0,0 STARLINK-4524,1 53396U 22097J   24202.92981611  .00001993  00000-0  14327-3 0  9995,2 53396  53.2175 283.0868 0001392  97.9841 262.1309 15.08847743108424,6917.857,95.437,540.685,538.759,0.0
53396.0,STARLINK-4524,PAYLOAD,2024-07-21 11:02:01,15.08837305,0.0001473,53.2167,280.7072,92.2498,267.8663,-8.1708e-05,-1.588e-05,0.0,0 STARLINK-4524,1 53396U 22097J   24203.45974244 -.00001588  00000-0 -81708-4 0  9998,2 53396  53.2167 280.7072 0001473  92.2498 267.8663 15.08837305108015,6917.889,95.438,540.773,538.735,0.0
53396.0,STARLINK-4524,PAYLOAD,2024-07-22 09:17:26,15.08829445,0.0001495,53.2166,276.5443,96.4838,263.6324,-4.0464e-05,-9.32e-06,0.0,0 STARLINK-4524,1 53396U 22097J   24204.38711159 -.00000932  00000-0 -40464-4 0  9991,2 53396  53.2166 276.5443 0001495  96.4838 263.6324 15.08829445108156,6917.913,95.438,540.812,538.743,0.0
53396.0,STARLINK-4524,PAYLOAD,2024-07-22 14:03:36,15.08813939,5.54e-05,53.2168,275.6513,160.3467,199.7547,-0.00028413,-4.803e-05,0.0,0 STARLINK-4524,1 53396U 22097J   24204.58583793 -.00004803  00000-0 -28413-3 0  9994,2 53396  53.2168 275.6513 0000554 160.3467 199.7547 15.08813939108674,6917.96,95.439,540.208,539.442,0.0
53396.0,STARLINK-4524,PAYLOAD,2024-07-23 10:43:36,15.08840579,8.8e-05,53.2177,271.78,88.2645,271.8448,0.00019526,2.821e-05,0.0,0 STARLINK-4524,1 53396U 22097J   24205.44695068  .00002821  00000-0  19526-3 0  9990,2 53396  53.2177 271.7800 0000880  88.2645 271.8448 15.08840579108311,6917.879,95.438,540.352,539.135,0.0
53396.0,STARLINK-4524,PAYLOAD,2024-07-23 13:54:21,15.08859109,0.0001317,53.2176,271.1863,106.238,253.8757,0.00034494,5.209e-05,0.0,0 STARLINK-4524,1 53396U 22097J   24205.57941535  .00005209  00000-0  34494-3 0  9991,2 53396  53.2176 271.1863 0001317 106.2380 253.8757 15.08859109108824,6917.822,95.436,540.598,538.776,0.0
